[{"OBJECT_NAME":"STARLINK-31599","OBJECT_ID":"2024-057H","EPOCH":"2026-03-09T09:01:25.964544","MEAN_MOTION":15.27563267,"ECCENTRICITY":0.00020586,"INCLINATION":43.0022,"RA_OF_ASC_NODE":188.6306,"ARG_OF_PERICENTER":290.3865,"MEAN_ANOMALY":69.6766,"EPHEMERIS_TYPE":0,"CLASSIFICATION_TYPE":"U","NORAD_CAT_ID":59327,"ELEMENT_SET_NO":999,"REV_AT_EPOCH":10979,"BSTAR":-9.1003077e-5,"MEAN_MOTION_DOT":-2.765e-5,"MEAN_MOTION_DDOT":0},{"OBJECT_NAME":"CZ-6A DEB","OBJECT_ID":"2022-151TQ","EPOCH":"2026-03-09T06:57:26.684352","MEAN_MOTION":15.22919125,"ECCENTRICITY":0.00409545,"INCLINATION":98.8216,"RA_OF_ASC_NODE":191.4692,"ARG_OF_PERICENTER":160.8215,"MEAN_ANOMALY":199.457,"EPHEMERIS_TYPE":0,"CLASSIFICATION_TYPE":"U","NORAD_CAT_ID":54975,"ELEMENT_SET_NO":999,"REV_AT_EPOCH":17711,"BSTAR":0.0066825196,"MEAN_MOTION_DOT":0.00163663,"MEAN_MOTION_DDOT":0}]
